[{"OBJECT_NAME":"LEMUR-2-KREMPEL-BRO1","OBJECT_ID":"2025-061G","EPOCH":"2026-03-09T22:19:45.751296","MEAN_MOTION":15.13773226,"ECCENTRICITY":0.0017497,"INCLINATION":97.5535,"RA_OF_ASC_NODE":45.5283,"ARG_OF_PERICENTER":227.946,"MEAN_ANOMALY":132.0284,"EPHEMERIS_TYPE":0,"CLASSIFICATION_TYPE":"U","NORAD_CAT_ID":63357,"ELEMENT_SET_NO":999,"REV_AT_EPOCH":5261,"BSTAR":0.00031891713,"MEAN_MOTION_DOT":5.707e-5,"MEAN_MOTION_DDOT":0},{"OBJECT_NAME":"MORELOS 2 R\/B [PAM-D]","OBJECT_ID":"1985-109F","EPOCH":"2026-03-09T15:15:44.185248","MEAN_MOTION":2.3767747,"ECCENTRICITY":0.7136255,"INCLINATION":25.6484,"RA_OF_ASC_NODE":219.9858,"ARG_OF_PERICENTER":354.3173,"MEAN_ANOMALY":0.494,"EPHEMERIS_TYPE":0,"CLASSIFICATION_TYPE":"U","NORAD_CAT_ID":16293,"ELEMENT_SET_NO":999,"REV_AT_EPOCH":27841,"BSTAR":0.00053939739,"MEAN_MOTION_DOT":1.33e-6,"MEAN_MOTION_DDOT":0}]
